#aV2007  6 16  0  0   .00000000      96 DD+AD WGS84 FIT  NGA
## 1431 518400.00000000   900.00000000 54267  .0000000000000
+   30     1  2  3  4  5  6  7  8  9 10 11 12 13 14 16 17 18
+         19 20 21 22 23 24 25 26 27 28 29 30 31  0  0  0  0
+          0  0  0  0  0  0  0  0  0  0  0  0  0  0  0  0  0
+          0  0  0  0  0  0  0  0  0  0  0  0  0  0  0  0  0
+          0  0  0  0  0  0  0  0  0  0  0  0  0  0  0  0  0
++         0  0  0  0  0  0  0  0  0  0  0  0  0  0  0  0  0
++         0  0  0  0  0  0  0  0  0  0  0  0  0  0  0  0  0
++         0  0  0  0  0  0  0  0  0  0  0  0  0  0  0  0  0
++         0  0  0  0  0  0  0  0  0  0  0  0  0  0  0  0  0
++         0  0  0  0  0  0  0  0  0  0  0  0  0  0  0  0  0
%c cc cc ccc ccc cccc cccc cccc cccc ccccc ccccc ccccc ccccc
%c cc cc ccc ccc cccc cccc cccc cccc ccccc ccccc ccccc ccccc
%f  0.0000000  0.000000000  0.00000000000  0.000000000000000
%f  0.0000000  0.000000000  0.00000000000  0.000000000000000
%i    0    0    0    0      0      0      0      0         0
%i    0    0    0    0      0      0      0      0         0
/*      NGA, ST. LOUIS,MO.                                  
/*   EPHEMERIS COMPUTED FROM  3 DAYS OF DATA                
/* CCCCCCCCCCCCCCCCCCCCCCCCCCCCCCCCCCCCCCCCCCCCCCCCCCCCCCCCC
/* CCCCCCCCCCCCCCCCCCCCCCCCCCCCCCCCCCCCCCCCCCCCCCCCCCCCCCCCC
*  2007  6 16  6 15   .00000000                                                 
P  1  16308.144198  14169.011750  15696.513474    134.416541                    
V  1 -19280.888533  -3015.089605  22993.220400       .021574                    
P  2 -13679.272826 -21896.567423  -7060.204091    114.558160                    
V  2   -406.356003  -9079.042467  29537.969391       .028196                    
P  3  21164.866744  10837.109593 -12382.149629     72.962401                    
V  3 -15521.704610   1814.750771 -25035.904972       .055612                    
P  4  -5915.504198 -25366.621903   4026.834687      9.563971                    
V  4   5102.012809   3769.448316  31092.253651      -.008856                    
P  5 -19703.060719  11696.288924  13063.216517     58.365888                    
V  5   7321.724727 -15711.064653  24812.942977       .518089                    
P  6 -20456.543300   8234.559806 -14643.072907    215.272764                    
V  6 -18464.835016  -5183.643370  22542.533788       .096755                    
P  7 -17503.722830  10516.055742 -16667.499062    253.119576                    
V  7 -21519.210339  -4627.206117  19217.729999      -.188298                    
P  8   2386.610723 -22565.096361 -13542.724803   -111.240430                    
V  8   7138.830682  15724.782034 -25582.357065      -.013799                    
P  9 -16719.027461  -5404.733767  19387.170617     74.726655                    
V  9  -8796.237059 -24331.693795 -13729.853310       .015542                    
P 10 -10233.150905 -11171.828852 -21916.515591    103.409208                    
V 10  18325.038880 -20564.336226   2247.512374       .005989                    
P 11  18503.170826   1542.189172  18970.665871     18.489055                    
V 11  10702.592084  22140.859278 -11872.976337       .008704                    
P 12 -19993.765631   6215.169820  16410.567462    -46.939640                    
V 12  11743.027303 -17102.046394  20981.399632      -.009255                    
P 13  19105.290550  -7321.244256 -17020.111397    181.886213                    
V 13  20674.578714   5453.495588  21027.281146       .033155                    
P 14    525.349859  14903.920691  22064.638753     25.180301                    
V 14 -27274.146229  -5047.053220   3993.888328       .018467                    
P 16   5016.935090  16017.317159 -20463.201325    155.920005                    
V 16 -17787.372822  19269.849326  10829.698847       .027873                    
P 17   2182.761641 -15106.766297  21754.513634     64.472817                    
V 17  27160.089156   4833.282236    502.428878      -.014456                    
P 18 -17057.251933  20089.121253   1074.163637   -247.229582                    
V 18  -3310.008172  -1348.226753 -31767.934292       .010447                    
P 19  25420.267655   7603.141056  -2129.854392     43.137213                    
V 19  -3399.004717   2097.660933 -31441.646535       .031486                    
P 20  20272.382019  -8128.027068  14985.532958    -25.698051                    
V 20 -10330.876545  16401.605677  22741.039469      -.004212                    
P 21  -8830.025604  16409.105440 -18578.276623     77.966004                    
V 21  -9613.337135 -22225.565922 -15541.811404       .003108                    
P 22  -8498.207823  22123.984745  12105.698623    186.813698                    
V 22 -12146.180344   9451.686069 -26164.187650       .014737                    
P 23  25363.650033  -1347.799864  -8209.091787    174.177140                    
V 23   9728.482538   3849.990648  29526.191497       .029460                    
P 24 -14573.998178   4386.105069 -21560.978091      7.865637                    
V 24  -8172.980790 -26660.163285    383.590003       .029229                    
P 25  11894.765871  -9704.625106 -21321.995800    318.605153                    
V 25  12433.957849  25014.846026  -4225.370110       .213121                    
P 26 -24554.609092  -9247.386879  -6202.934762   -253.091421                    
V 26   7246.982671    269.902963 -30812.166072      -.214873                    
P 27   7081.702581 -16427.885708 -18911.479167    116.910013                    
V 27  11699.611717  22669.460431 -15040.215501       .023118                    
P 28  11012.594019 -22324.223767   9088.499755     -1.089964                    
V 28   9397.689309  -6634.522428 -29093.072814      -.006953                    
P 29 -22623.827206 -10314.227297  -9653.564168      3.774137                    
V 29  12476.614227    615.973670 -28914.141962       .003543                    
P 30 -19368.424690  16297.175226   7543.272442     36.775325                    
V 30   3560.113992  -9928.143475  29493.392285       .011763                    
P 31   7280.258505  25348.232474   2991.699750     17.854468                    
V 31  -3845.416698  -2368.601459  31554.201374      -.006615                    
EOF
